ZACUBE-2                
1 43907U 18111AH  22311.94214120  .00017052  00000+0  58176-3 0  9991
2 43907  97.1681 193.1703 0017010 293.4462 265.7049 15.30265414215215
LUME 1                  
1 43908U 18111AJ  22311.64972971  .00018452  00000+0  56802-3 0  9993
2 43908  97.1694 195.0299 0014875 284.8150  75.1445 15.33584451215317
AOBA VELOX-IV           
1 43940U 19003J   22310.88602406  .00045797  00000+0  92563-3 0  9994
2 43940  97.1122 343.1409 0013243 356.7614   3.3548 15.46246863212062
MOVE-IIB                
1 44398U 19038N   22311.52685983  .00027926  00000+0  11939-2 0  9994
2 44398  97.6458 282.6365 0019818   0.3222 359.8001 15.22632137184772
SONATE                  
1 44400U 19038Q   22311.95733450  .00010624  00000+0  55008-3 0  9991
2 44400  97.6552 281.3696 0023077   4.1056 356.0358 15.16168128184662
LUCKY-7                 
1 44406U 19038W   22310.47211910  .00010315  00000+0  51647-3 0  9997
2 44406  97.6566 280.5639 0022166   6.4605 353.6909 15.17374239184482
BEESAT 9                
1 44412U 19038AC  22311.17245094  .00013372  00000+0  62950-3 0  9997
2 44412  97.6529 281.8507 0019489   8.6093 351.5472 15.19499567184346
JAISAT-1                
1 44419U 19038F   22310.91641087  .00013347  00000+0  62048-3 0  9997
2 44419  97.6529 282.5381 0018394   7.1166 353.0326 15.19954091184679
DUCHIFAT-3              
1 44854U 19089C   22311.43927513  .00007324  00000+0  55032-3 0  9998
2 44854  36.9669 332.0755 0008202 304.9692 198.6686 15.02212438159430
EYESAT-NANO             
1 44877U 19092E   22310.74349224  .00017778  00000+0  69564-3 0  9996
2 44877  97.4606 134.4189 0010068 213.4295 146.6309 15.25840940160032
ORBITAL FACTORY 2 (OF-2)
1 45113U 19071C   22311.50773073  .00067703  00000+0  97750-3 0  9996
2 45113  51.6352  71.4406 0010172 331.9029  28.1412 15.55272202155558
M2 PATHFINDER           
1 45727U 20037E   22311.45144248  .00003081  00000+0  30565-3 0  9991
2 45727  97.7402 124.4236 0011236 283.1040  76.8874 14.92451473128156
NETSAT-4                
1 46504U 20068U   22310.57253054  .00006686  00000+0  48323-3 0  9992
2 46504  97.7340 250.2364 0010988 197.8022 162.2822 15.04342662115405
NETSAT-3                
1 46505U 20068V   22310.59213517  .00006877  00000+0  49780-3 0  9995
2 46505  97.7334 250.1518 0009559 206.9156 153.1594 15.04287928115410
NETSAT-1                
1 46506U 20068W   22310.61396138  .00005945  00000+0  43172-3 0  9994
2 46506  97.7344 250.0885 0007263 211.8131 148.2660 15.04241245115417
NETSAT-2                
1 46507U 20068X   22310.62503335  .00006531  00000+0  47379-3 0  9990
2 46507  97.7338 250.0915 0006776 219.3774 140.6971 15.04239874115369
SAI-1 NANOCONNECT-2     
1 47701U 21015C   22310.73140542  .00018039  00000+0  60324-3 0  9990
2 47701  97.4125  27.1788 0009236 313.1863  46.8606 15.31007086 93954
WILDTRACKCUBE-SIMBA     
1 47941U 21022K   22311.80183593  .00008150  00000+0  52583-3 0  9997
2 47941  97.5147 208.2240 0021355  20.6406  52.5668 15.08350497 89597
BEESAT-6                
1 47957U 21022AB  22311.92117078  .00015707  00000+0  94643-3 0  9991
2 47957  97.5116 208.7618 0019978  20.9874  41.7511 15.10699302 89449
SMOG-1                  
1 47964U 21022AJ  22311.29328954  .00011126  00000+0  64471-3 0  9993
2 47964  97.5151 209.5264 0018379  12.3433 347.8244 15.12222188 88451
MMSATS-1                
1 47976U 98067SJ  22311.85461488  .00059238  00000+0  52607-3 0  9995
2 47976  51.6365 321.0152 0002690  65.1679 355.3500 15.67954539 92686
BCCSAT-1                
1 48041U 21022AK  22311.69671363  .00011245  00000+0  67145-3 0  9992
2 48041  97.5156 209.3537 0015172  11.4341 348.7231 15.11179587 88459
BEESAT-5                
1 48083U 21022AM  22311.68740462  .00016913  00000+0  10066-2 0  9990
2 48083  97.5122 208.5614 0020435  21.5304   7.8067 15.11120539 88547
BEESAT-7                
1 48084U 21022AN  22311.90803333  .00016152  00000+0  96773-3 0  9998
2 48084  97.5119 208.7710 0020338  20.2789  44.4403 15.10892375 88160
BEESAT-8                
1 48085U 21022AP  22311.92358975  .00012076  00000+0  73413-3 0  9995
2 48085  97.5159 208.7559 0020333  19.8198  41.8278 15.10432177 88722
LEDSAT                  
1 49069U 21073D   22311.66369393  .00006871  00000+0  42418-3 0  9998
2 49069  97.5118  21.7095 0026959 160.6049 199.6212 15.09908495 67432
HSU-SAT1                
1 53462U 98067UB  22311.34236596  .00057290  00000+0  72403-3 0  9998
2 53462  51.6387 344.7249 0008999  68.9018 291.2936 15.58929227 13536
FUTABA                  
1 53463U 98067UC  22311.56102067  .00090879  00000+0  10628-2 0  9998
2 53463  51.6378 343.1823 0009478  66.5262 293.6727 15.60764135 13572
TUMNANOSAT              
1 53464U 98067UD  22311.58804133  .00111528  00000+0  12108-2 0  9994
2 53464  51.6372 342.6128 0010136  64.2553 295.9486 15.62585718 13588
BEIJING 1               
1 28890U 05043A   22311.76979883  .00000451  00000+0  10023-3 0  9993
2 28890  98.1357  71.6793 0016507  86.5907 273.7189 14.61535988908070
HJ-1A                   
1 33320U 08041A   22311.88695275  .00000721  00000+0  10636-3 0  9991
2 33320  97.6662 338.1408 0022197 123.0405 237.2931 14.77976725763572
HJ-1B                   
1 33321U 08041B   22311.83829793  .00001558  00000+0  22058-3 0  9991
2 33321  97.6821 341.9465 0035071 141.9998 218.3685 14.78003158763563
YAOGAN 4                
1 33446U 08061A   22311.41373131  .00001067  00000+0  15610-3 0  9996
2 33446  97.8294 247.2728 0017111  35.7066 324.5285 14.77560404750707
DEIMOS-1                
1 35681U 09041A   22311.81605713  .00000654  00000+0  11113-3 0  9991
2 35681  97.6973 155.4292 0002796 104.3171 255.8354 14.72164536712860
UK-DMC 2                
1 35683U 09041C   22311.76614410  .00001033  00000+0  17356-3 0  9998
2 35683  97.7088 117.1973 0001474  98.9331 261.2047 14.71580129712587
RISAT 1                 
1 38248U 12017A   22311.64348906  .00005391  00000+0  30964-3 0  9997
2 38248  97.5508 321.5066 0005493 115.0536 245.1265 15.12920423580485
DMC3-FM1                
1 40715U 15032A   22311.85650110  .00000898  00000+0  11891-3 0  9990
2 40715  97.8250 195.6994 0007273  58.8736 301.3192 14.82266299394531
DMC3-FM2                
1 40716U 15032B   22311.81222535  .00000905  00000+0  11979-3 0  9999
2 40716  97.8294 196.3723 0009255  59.6458 300.5670 14.82259280394534
DMC3-FM3                
1 40717U 15032C   22311.96753220 -.00006406  00000+0 -79550-3 0  9999
2 40717  97.8336 197.5022 0010824  57.4450 302.6981 14.82289907394558
NOAA 15                 
1 25338U 98030A   22311.82271107  .00000223  00000+0  11151-3 0  9996
2 25338  98.6317 339.4041 0009493 236.2584 123.7692 14.26192998273706
DMSP 5D-3 F15 (USA 147) 
1 25991U 99067A   22311.45259731  .00000199  00000+0  12278-3 0  9993
2 25991  99.0635 305.5498 0010694 139.3975  10.1942 14.16594212184039
DMSP 5D-3 F16 (USA 172) 
1 28054U 03048A   22311.85358830  .00000190  00000+0  12469-3 0  9997
2 28054  99.0006 303.4850 0006373 273.8336 179.1610 14.13703991983282
NOAA 18                 
1 28654U 05018A   22311.69213334  .00000230  00000+0  14787-3 0  9993
2 28654  98.9360  21.9209 0013269 287.4875  72.4846 14.12802774900294
METEOSAT-9 (MSG-2)      
1 28912U 05049B   22310.49966694  .00000128  00000+0  00000+0 0  9990
2 28912   6.3380  65.3433 0002082 190.0936  15.9261  1.00277531 61814
EWS-G1 (GOES 13)        
1 29155U 06018A   22311.42132777  .00000041  00000+0  00000+0 0  9992
2 29155   0.9375  94.3610 0006866 135.4895  29.7816  1.00271019 60293
DMSP 5D-3 F17 (USA 191) 
1 29522U 06050A   22311.85232093  .00000215  00000+0  13578-3 0  9996
2 29522  98.7637 324.2041 0009383 207.8566 152.2106 14.14134256826177
FENGYUN 3A              
1 32958U 08026A   22311.63380942  .00000172  00000+0  10320-3 0  9995
2 32958  98.5232 268.5406 0008332 336.6519  23.4278 14.18758307748636
FENGYUN 2E              
1 33463U 08066A   22311.87075589 -.00000194  00000+0  00000+0 0  9990
2 33463   6.2226  64.4254 0000547  57.7473 324.6052  1.00265058 50883
NOAA 19                 
1 33591U 09005A   22311.85147700  .00000237  00000+0  15265-3 0  9999
2 33591  99.1329 348.9033 0014508 142.6114 217.6069 14.12634307708695
GOES 14                 
1 35491U 09033A   22311.43183689 -.00000092  00000+0  00000+0 0  9998
2 35491   0.2610 265.2000 0018423 314.8725 237.7802  1.00272564 48947
METEOR-M 1              
1 35865U 09049A   22311.69065939  .00000166  00000+0  93674-4 0  9990
2 35865  98.5487 277.6693 0002653 145.2671 214.8681 14.22375624682048
DMSP 5D-3 F18 (USA 210) 
1 35951U 09057A   22311.88313741  .00000292  00000+0  17768-3 0  9992
2 35951  98.7406 287.8533 0011983  42.2210 317.9883 14.13584070673376
GOES 15                 
1 36411U 10008A   22311.47830220  .00000057  00000+0  00000+0 0  9999
2 36411   0.2199 279.9549 0003791 271.5794 258.9400  1.00274246 46440
COMS 1                  
1 36744U 10032A   22310.78021682 -.00000343  00000+0  00000+0 0  9991
2 36744   1.4403  91.8164 0001028 140.6749 222.5342  1.00272119 45438
FENGYUN 3B              
1 37214U 10059A   22311.89802130  .00000090  00000+0  71527-4 0  9996
2 37214  99.0942 320.4325 0021507 312.5191  47.4157 14.14273330621238
SUOMI NPP               
1 37849U 11061A   22311.84001472  .00000105  00000+0  70658-4 0  9990
2 37849  98.7449 248.4650 0000989  87.4606 292.2856 14.19558598571529
FENGYUN 2F              
1 38049U 12002A   22311.50127137 -.00000353  00000+0  00000+0 0  9994
2 38049   4.1402  78.5717 0002188 268.1262 352.3941  1.00283121 39678
METEOSAT-10 (MSG-3)     
1 38552U 12035B   22310.27721860  .00000063  00000+0  00000+0 0  9992
2 38552   1.7508  48.3142 0001371 165.6004 300.9646  1.00280265 37633
METOP-B                 
1 38771U 12049A   22311.80607604  .00000160  00000+0  93378-4 0  9992
2 38771  98.7123   9.5145 0000894  57.3712  52.9325 14.21490962526094
